{
  "type": "FeatureCollection",
  "features": [
    {
      "type": "Feature",
      "properties": {
        "norad_id": 31938,
        "name": "FENGYUN 1C DEB",
        "group": "fengyun-1c-debris",
        "lat": 58.41647097271138,
        "lon": -157.1716463616138,
        "alt_km": 478.5466130759778,
        "timestamp": "2025-12-03T19:33:07.260983+00:00",
        "meta_object_name": "FENGYUN 1C DEB",
        "meta_object_id": "1999-025CMP",
        "meta_epoch": "2025-12-03T01:21:45.744480",
        "meta_mean_motion": 14.95446744,
        "meta_eccentricity": 0.01536631,
        "meta_inclination": 98.9311,
        "meta_ra_of_asc_node": 7.1451,
        "meta_arg_of_pericenter": 97.2097,
        "meta_mean_anomaly": 264.6618,
        "meta_ephemeris_type": 0,
        "meta_classification_type": "U",
        "meta_norad_cat_id": 31938,
        "meta_element_set_no": 999,
        "meta_rev_at_epoch": 98991,
        "meta_bstar": 0.00050086382,
        "meta_mean_motion_dot": 6.944e-05,
        "meta_mean_motion_ddot": 0,
        "tle_line1": "1 31938U 99025CMP 25337.05677945  .00006944  00000+0  50086-3 0  9996",
        "tle_line2": "2 31938  98.9311   7.1451 0153663  97.2097 264.6618 14.95446744989910"
      },
      "geometry": {
        "type": "Point",
        "coordinates": [
          -157.1716463616138,
          58.41647097271138
        ]
      }
    },
    {
      "type": "Feature",
      "properties": {
        "norad_id": 31944,
        "name": "FENGYUN 1C DEB",
        "group": "fengyun-1c-debris",
        "lat": 23.440693719066747,
        "lon": -50.881615144624,
        "alt_km": 917.8932719782852,
        "timestamp": "2025-12-03T19:33:07.260995+00:00",
        "meta_object_name": "FENGYUN 1C DEB",
        "meta_object_id": "1999-025CMV",
        "meta_epoch": "2025-12-03T04:21:09.092736",
        "meta_mean_motion": 14.11759082,
        "meta_eccentricity": 0.01516662,
        "meta_inclination": 99.2029,
        "meta_ra_of_asc_node": 124.438,
        "meta_arg_of_pericenter": 30.7997,
        "meta_mean_anomaly": 147.0056,
        "meta_ephemeris_type": 0,
        "meta_classification_type": "U",
        "meta_norad_cat_id": 31944,
        "meta_element_set_no": 999,
        "meta_rev_at_epoch": 62775,
        "meta_bstar": 0.00074621414,
        "meta_mean_motion_dot": 1.469e-05,
        "meta_mean_motion_ddot": 0,
        "tle_line1": "1 31944U 99025CMV 25337.18135524  .00001469  00000+0  74621-3 0  9997",
        "tle_line2": "2 31944  99.2029 124.4380 0151666  30.7997 147.0056 14.11759082627754"
      },
      "geometry": {
        "type": "Point",
        "coordinates": [
          -50.881615144624,
          23.440693719066747
        ]
      }
    },
    {
      "type": "Feature",
      "properties": {
        "norad_id": 31945,
        "name": "FENGYUN 1C DEB",
        "group": "fengyun-1c-debris",
        "lat": -32.7008639384613,
        "lon": -131.78700003401863,
        "alt_km": 836.60021748699,
        "timestamp": "2025-12-03T19:33:07.261008+00:00",
        "meta_object_name": "FENGYUN 1C DEB",
        "meta_object_id": "1999-025CMW",
        "meta_epoch": "2025-11-29T11:26:27.358656",
        "meta_mean_motion": 14.20676291,
        "meta_eccentricity": 0.00604085,
        "meta_inclination": 98.9644,
        "meta_ra_of_asc_node": 49.6315,
        "meta_arg_of_pericenter": 325.8129,
        "meta_mean_anomaly": 33.9164,
        "meta_ephemeris_type": 0,
        "meta_classification_type": "U",
        "meta_norad_cat_id": 31945,
        "meta_element_set_no": 999,
        "meta_rev_at_epoch": 95007,
        "meta_bstar": 0.0013352556,
        "meta_mean_motion_dot": 2.885e-05,
        "meta_mean_motion_ddot": 0,
        "tle_line1": "1 31945U 99025CMW 25333.47670554  .00002885  00000+0  13353-2 0  9990",
        "tle_line2": "2 31945  98.9644  49.6315 0060408 325.8129  33.9164 14.20676291950075"
      },
      "geometry": {
        "type": "Point",
        "coordinates": [
          -131.78700003401863,
          -32.7008639384613
        ]
      }
    },
    {
      "type": "Feature",
      "properties": {
        "norad_id": 31946,
        "name": "FENGYUN 1C DEB",
        "group": "fengyun-1c-debris",
        "lat": -48.117203854354564,
        "lon": -152.01716193318484,
        "alt_km": 898.0859918988726,
        "timestamp": "2025-12-03T19:33:07.261018+00:00",
        "meta_object_name": "FENGYUN 1C DEB",
        "meta_object_id": "1999-025CMX",
        "meta_epoch": "2025-12-03T10:00:15.109056",
        "meta_mean_motion": 14.16359084,
        "meta_eccentricity": 0.0083398,
        "meta_inclination": 98.8988,
        "meta_ra_of_asc_node": 37.6477,
        "meta_arg_of_pericenter": 76.7615,
        "meta_mean_anomaly": 284.2845,
        "meta_ephemeris_type": 0,
        "meta_classification_type": "U",
        "meta_norad_cat_id": 31946,
        "meta_element_set_no": 999,
        "meta_rev_at_epoch": 63876,
        "meta_bstar": 0.0017748,
        "meta_mean_motion_dot": 3.603e-05,
        "meta_mean_motion_ddot": 0,
        "tle_line1": "1 31946U 99025CMX 25337.41684154  .00003603  00000+0  17748-2 0  9991",
        "tle_line2": "2 31946  98.8988  37.6477 0083398  76.7615 284.2845 14.16359084638766"
      },
      "geometry": {
        "type": "Point",
        "coordinates": [
          -152.01716193318484,
          -48.117203854354564
        ]
      }
    },
    {
      "type": "Feature",
      "properties": {
        "norad_id": 31948,
        "name": "FENGYUN 1C DEB",
        "group": "fengyun-1c-debris",
        "lat": -49.70434587778045,
        "lon": -153.68593270851034,
        "alt_km": 821.6586519650746,
        "timestamp": "2025-12-03T19:33:07.261028+00:00",
        "meta_object_name": "FENGYUN 1C DEB",
        "meta_object_id": "1999-025CMZ",
        "meta_epoch": "2025-12-02T23:07:31.547712",
        "meta_mean_motion": 14.28182343,
        "meta_eccentricity": 0.00237776,
        "meta_inclination": 99.3956,
        "meta_ra_of_asc_node": 36.6595,
        "meta_arg_of_pericenter": 50.177,
        "meta_mean_anomaly": 126.8754,
        "meta_ephemeris_type": 0,
        "meta_classification_type": "U",
        "meta_norad_cat_id": 31948,
        "meta_element_set_no": 999,
        "meta_rev_at_epoch": 94888,
        "meta_bstar": 0.0019459046,
        "meta_mean_motion_dot": 4.812e-05,
        "meta_mean_motion_ddot": 0,
        "tle_line1": "1 31948U 99025CMZ 25336.96355958  .00004812  00000+0  19459-2 0  9993",
        "tle_line2": "2 31948  99.3956  36.6595 0023777  50.1770 126.8754 14.28182343948884"
      },
      "geometry": {
        "type": "Point",
        "coordinates": [
          -153.68593270851034,
          -49.70434587778045
        ]
      }
    },
    {
      "type": "Feature",
      "properties": {
        "norad_id": 31949,
        "name": "FENGYUN 1C DEB",
        "group": "fengyun-1c-debris",
        "lat": 55.47613853380005,
        "lon": -48.95379143455439,
        "alt_km": 920.848570231542,
        "timestamp": "2025-12-03T19:33:07.261038+00:00",
        "meta_object_name": "FENGYUN 1C DEB",
        "meta_object_id": "1999-025CNA",
        "meta_epoch": "2025-11-23T05:03:27.897984",
        "meta_mean_motion": 14.1687356,
        "meta_eccentricity": 0.01252295,
        "meta_inclination": 98.5419,
        "meta_ra_of_asc_node": 313.4803,
        "meta_arg_of_pericenter": 269.0533,
        "meta_mean_anomaly": 89.6292,
        "meta_ephemeris_type": 0,
        "meta_classification_type": "U",
        "meta_norad_cat_id": 31949,
        "meta_element_set_no": 999,
        "meta_rev_at_epoch": 95228,
        "meta_bstar": 0.00041514195,
        "meta_mean_motion_dot": 8.56e-06,
        "meta_mean_motion_ddot": 0,
        "tle_line1": "1 31949U 99025CNA 25327.21073956  .00000856  00000+0  41514-3 0  9999",
        "tle_line2": "2 31949  98.5419 313.4803 0125229 269.0533  89.6292 14.16873560952288"
      },
      "geometry": {
        "type": "Point",
        "coordinates": [
          -48.95379143455439,
          55.47613853380005
        ]
      }
    },
    {
      "type": "Feature",
      "properties": {
        "norad_id": 31952,
        "name": "FENGYUN 1C DEB",
        "group": "fengyun-1c-debris",
        "lat": 57.381264770098845,
        "lon": -71.4376181982449,
        "alt_km": 785.877809380534,
        "timestamp": "2025-12-03T19:33:07.261076+00:00",
        "meta_object_name": "FENGYUN 1C DEB",
        "meta_object_id": "1999-025CND",
        "meta_epoch": "2025-12-02T01:41:17.244672",
        "meta_mean_motion": 14.53424312,
        "meta_eccentricity": 0.0114361,
        "meta_inclination": 98.9555,
        "meta_ra_of_asc_node": 92.4345,
        "meta_arg_of_pericenter": 324.9229,
        "meta_mean_anomaly": 34.4471,
        "meta_ephemeris_type": 0,
        "meta_classification_type": "U",
        "meta_norad_cat_id": 31952,
        "meta_element_set_no": 999,
        "meta_rev_at_epoch": 97054,
        "meta_bstar": 0.00045789715,
        "meta_mean_motion_dot": 2.02e-05,
        "meta_mean_motion_ddot": 0,
        "tle_line1": "1 31952U 99025CND 25336.07033848  .00002020  00000+0  45790-3 0  9998",
        "tle_line2": "2 31952  98.9555  92.4345 0114361 324.9229  34.4471 14.53424312970544"
      },
      "geometry": {
        "type": "Point",
        "coordinates": [
          -71.4376181982449,
          57.381264770098845
        ]
      }
    }
  ]
}